0 SL-14 R/B
1 11087U 78100D   13281.15873693 -.00000008  00000-0 -21638-3 0  5146
2 11087 082.5460 140.0314 0008933 212.3438 282.6506 11.97018130527388
0 SL-14 R/B
1 11087U 78100D   13283.24833241 -.00000011  00000-0 -25450-3 0  5154
2 11087 082.5464 138.8485 0008925 208.2572 287.1770 11.97018386527634
0 SL-14 R/B
1 11087U 78100D   13285.49164904 -.00000034  00000-0 -55307-3 0  5166
2 11087 082.5459 137.5788 0008992 203.6527 234.3412 11.97018425527904
0 SL-14 R/B
1 11087U 78100D   13287.49736899  .00000032  00000-0  30055-3 0  5176
2 11087 082.5455 136.4434 0009133 199.4618 237.7037 11.97017678528143
0 SL-14 R/B
1 11087U 78100D   13289.85202466  .00000071  00000-0  79707-3 0  5187
2 11087 082.5451 135.1104 0009135 194.5522 304.7397 11.97017451528425
0 SL-14 R/B
1 11087U 78100D   13292.11042744 -.00000016  00000-0 -31347-3 0  5191
2 11087 082.5448 133.8319 0009288 190.0366 316.7867 11.97018333528694
0 SL-14 R/B
1 11087U 78100D   13294.18518152 -.00000018  00000-0 -34664-3 0  5200
2 11087 082.5452 132.6573 0009272 185.9803 257.3576 11.97018611528944
